STARLINK-32702          
1 62432U 24251A   26079.82547870  .00025178  00000+0  85892-3 0  9993
2 62432  53.1609 280.7215 0001330  76.3845 283.7304 15.30215297 69690
STARLINK-32712          
1 62433U 24251B   26080.03471358  .00024624  00000+0  83994-3 0  9992
2 62433  53.1583 282.7304 0000978  85.1215 274.9897 15.30231829 69686
STARLINK-32674          
1 62434U 24251C   26079.86611077  .00051681  00000+0  17455-2 0  9997
2 62434  53.1586 283.1016 0002167 160.9599 199.1484 15.30189806 69669
STARLINK-32711          
1 62435U 24251D   26080.09687652  .00026806  00000+0  91375-3 0  9992
2 62435  53.1596 282.4076 0000713  71.7387 288.3692 15.30205244 69698
STARLINK-32697          
1 62436U 24251E   26080.28015763  .00033724  00000+0  11449-2 0  9992
2 62436  53.1591 281.4192 0001825  91.1559 268.9651 15.30218152 69729
STARLINK-32693          
1 62437U 24251F   26079.58531351  .00018653  00000+0  64004-3 0  9990
2 62437  53.1577 281.9927 0001732  73.1046 287.0145 15.30213862 69658
STARLINK-32721          
1 62438U 24251G   26080.27276689  .00039111  00000+0  13246-2 0  9992
2 62438  53.1587 281.3693 0001294  88.5427 271.5722 15.30226777 69669
STARLINK-32709          
1 62439U 24251H   26079.85566534  .00022710  00000+0  77612-3 0  9991
2 62439  53.1572 283.7475 0000663  92.9331 267.1746 15.30217559 69654
STARLINK-32689          
1 62440U 24251J   26080.25376878  .00024382  00000+0  83199-3 0  9993
2 62440  53.1557 281.2530 0000430  91.1050 269.0000 15.30225081 69726
STARLINK-32724          
1 62441U 24251K   26080.27489853  .00066105  00000+0  22223-2 0  9993
2 62441  53.1586 281.3857 0001180  90.1971 269.9166 15.30228300 69567
STARLINK-32291          
1 62442U 24251L   26080.02205683  .00023980  00000+0  81837-3 0  9995
2 62442  53.1590 282.6492 0001570  86.3054 273.8126 15.30230962 69370
STARLINK-32736          
1 62443U 24251M   26079.83352592  .00026911  00000+0  91756-3 0  9993
2 62443  53.1595 283.6085 0001247  93.6827 266.4316 15.30194926 69496
STARLINK-32737          
1 62444U 24251N   26080.26907203  .00037075  00000+0  12567-2 0  9993
2 62444  53.1605 279.2157 0001149  97.6844 262.4288 15.30225274 69758
STARLINK-32683          
1 62445U 24251P   26079.59018612  .00023212  00000+0  79288-3 0  9997
2 62445  53.1577 284.9307 0001591 111.1391 248.9780 15.30220893 69610
STARLINK-32726          
1 62446U 24251Q   26080.27382125  .00022885  00000+0  78188-3 0  9991
2 62446  53.1598 281.3746 0001190  94.6581 265.4556 15.30221800 69415
STARLINK-32730          
1 62447U 24251R   26079.87454792  .00017357  00000+0  59654-3 0  9991
2 62447  53.1580 283.1493 0001064 104.3032 255.8088 15.30212216 69667
STARLINK-32719          
1 62448U 24251S   26079.93678837  .00014682  00000+0  50675-3 0  9999
2 62448  53.1572 283.3936 0001310  92.9126 267.2025 15.30207197 69494
STARLINK-32723          
1 62449U 24251T   26080.27592502  .00016877  00000+0  58059-3 0  9995
2 62449  53.1591 281.3896 0001389  83.5698 276.5461 15.30204129 69562
STARLINK-32722          
1 62450U 24251U   26080.27065638  .00041903  00000+0  14180-2 0  9996
2 62450  53.1598 281.3532 0001016  92.1443 267.9674 15.30221026 69351
STARLINK-32720          
1 62451U 24251V   26078.86433953  .00030372  00000+0  10331-2 0  9990
2 62451  53.1569 288.2241 0001543  43.5908 316.5215 15.30208132 69135
STARLINK-32656          
1 62452U 24251W   26080.25071568  .00043028  00000+0  14549-2 0  9994
2 62452  53.1576 281.9393 0000355 358.1678   1.9321 15.30234901 69553
STARLINK-32690          
1 62453U 24251X   26079.87561128  .00010155  00000+0  35459-3 0  9996
2 62453  53.1583 283.1584 0001139  95.0694 265.0437 15.30193059 69283
NUVIEW ALPHA            
1 62455U 24252B   26080.21217597 -.00000213  00000+0  00000+0 0  9992
2 62455   0.0670  36.7363 0001969 327.0951 168.1585  1.00270986  2949
AGILA                   
1 62456U 24252C   26080.21017095 -.00000180  00000+0  00000+0 0  9997
2 62456   0.0294 141.9696 0001363 210.5663  54.0112  1.00271031  4273
NUVIEW BRAVO            
1 62457U 24252D   26080.21217514 -.00000213  00000+0  00000+0 0  9993
2 62457   0.0618 172.5566 0000466 238.6705 120.7637  1.00271322  2916
SDX01                   
1 62459U 24253A   26080.19271419  .00068498  00000+0  87052-3 0  9991
2 62459  54.9960  39.4768 0005712  39.1854 320.9595 15.58811774 68760
SDX02                   
1 62460U 24253B   26080.19289286  .00067745  00000+0  86086-3 0  9994
2 62460  54.9954  39.4742 0005799  39.7492 320.3969 15.58818624 68755
STARLINK-11518 [DTC]    
1 62462U 24254A   26079.92342169  .00177657  00000+0  13561-2 0  9997
2 62462  42.9995 155.6611 0000541 323.7760  36.3071 15.70884062 71170
STARLINK-11455 [DTC]    
1 62463U 24254B   26080.24662757  .00308298  00000+0  23142-2 0  9996
2 62463  42.9996 153.7883 0001068 245.0998 114.9759 15.70879959 71216
STARLINK-11178 [DTC]    
1 62465U 24254D   26079.91279944  .00243416  00000+0  18358-2 0  9995
2 62465  42.9992 155.5751 0001696 287.5305  72.5377 15.70965053 71001
