OBJECT_NAME,OBJECT_ID,EPOCH,MEAN_MOTION,ECCENTRICITY,INCLINATION,RA_OF_ASC_NODE,ARG_OF_PERICENTER,MEAN_ANOMALY,NORAD_CAT_ID,ELEMENT_SET_NO,REV_AT_EPOCH,BSTAR,MEAN_MOTION_DOT,MEAN_MOTION_DDOT
STARLINK-32702,2024-251A,2026-03-20T19:48:41.359680,15.30215297,0.00013309,53.1609,280.7215,76.3845,283.7304,62432.0,999.0,6969.0,0.00085891833,0.00025178,0.0
STARLINK-32712,2024-251B,2026-03-21T00:49:59.253312,15.30231829,9.786e-05,53.1583,282.7304,85.1215,274.9897,62433.0,999.0,6968.0,0.00083993864,0.00024624,0.0
STARLINK-32674,2024-251C,2026-03-20T20:47:11.970528,15.30189806,0.0002167,53.1586,283.1016,160.9599,199.1484,62434.0,999.0,6966.0,0.0017454526,0.00051681,0.0
STARLINK-32711,2024-251D,2026-03-21T02:19:30.131328,15.30205244,7.133e-05,53.1596,282.4076,71.7387,288.3692,62435.0,999.0,6969.0,0.0009137499,0.00026806,0.0
STARLINK-32697,2024-251E,2026-03-21T06:43:25.619232,15.30218152,0.0001825,53.1591,281.4192,91.1559,268.9651,62436.0,999.0,6972.0,0.001144934,0.00033724,0.0
STARLINK-32693,2024-251F,2026-03-20T14:02:51.087264,15.30213862,0.0001732,53.1577,281.9927,73.1046,287.0145,62437.0,999.0,6965.0,0.00064004,0.00018653,0.0
STARLINK-32721,2024-251G,2026-03-21T06:32:47.059296,15.30226777,0.00012943,53.1587,281.3693,88.5427,271.5722,62438.0,999.0,6966.0,0.0013246009,0.00039111,0.0
STARLINK-32709,2024-251H,2026-03-20T20:32:09.485376,15.30217559,6.637e-05,53.1572,283.7475,92.9331,267.1746,62439.0,999.0,6965.0,0.00077612371,0.0002271,0.0
STARLINK-32689,2024-251J,2026-03-21T06:05:25.622592,15.30225081,4.307e-05,53.1557,281.253,91.105,269.0,62440.0,999.0,6972.0,0.00083199229,0.00024382,0.0
STARLINK-32724,2024-251K,2026-03-21T06:35:51.232992,15.302283,0.00011805,53.1586,281.3857,90.1971,269.9166,62441.0,999.0,6956.0,0.0022223277,0.00066105,0.0
STARLINK-32291,2024-251L,2026-03-21T00:31:45.710112,15.30230962,0.00015707,53.159,282.6492,86.3054,273.8126,62442.0,999.0,6937.0,0.00081837148,0.0002398,0.0
STARLINK-32736,2024-251M,2026-03-20T20:00:16.639488,15.30194926,0.00012478,53.1595,283.6085,93.6827,266.4316,62443.0,999.0,6949.0,0.00091756125,0.00026911,0.0
STARLINK-32737,2024-251N,2026-03-21T06:27:27.823392,15.30225274,0.00011497,53.1605,279.2157,97.6844,262.4288,62444.0,999.0,6975.0,0.001256687,0.00037075,0.0
STARLINK-32683,2024-251P,2026-03-20T14:09:52.080768,15.30220893,0.0001591,53.1577,284.9307,111.1391,248.978,62445.0,999.0,6961.0,0.00079288,0.00023212,0.0
STARLINK-32726,2024-251Q,2026-03-21T06:34:18.156000,15.302218,0.00011906,53.1598,281.3746,94.6581,265.4556,62446.0,999.0,6941.0,0.00078187971,0.00022885,0.0
STARLINK-32730,2024-251R,2026-03-20T20:59:20.940288,15.30212216,0.00010648,53.158,283.1493,104.3032,255.8088,62447.0,999.0,6966.0,0.00059653907,0.00017357,0.0
STARLINK-32719,2024-251S,2026-03-20T22:28:58.515168,15.30207197,0.00013101,53.1572,283.3936,92.9126,267.2025,62448.0,999.0,6949.0,0.00050674822,0.00014682,0.0
STARLINK-32723,2024-251T,2026-03-21T06:37:19.921728,15.30204129,0.00013892,53.1591,281.3896,83.5698,276.5461,62449.0,999.0,6956.0,0.00058059021,0.00016877,0.0
STARLINK-32722,2024-251U,2026-03-21T06:29:44.711232,15.30221026,0.0001016,53.1598,281.3532,92.1443,267.9674,62450.0,999.0,6935.0,0.0014180099,0.00041903,0.0
STARLINK-32720,2024-251V,2026-03-19T20:44:38.935392,15.30208132,0.0001543,53.1569,288.2241,43.5908,316.5215,62451.0,999.0,6913.0,0.001033134,0.00030372,0.0
STARLINK-32656,2024-251W,2026-03-21T06:01:01.834752,15.30234901,3.559e-05,53.1576,281.9393,358.1678,1.9321,62452.0,999.0,6955.0,0.0014549379,0.00043028,0.0
STARLINK-32690,2024-251X,2026-03-20T21:00:52.814592,15.30193059,0.00011395,53.1583,283.1584,95.0694,265.0437,62453.0,999.0,6928.0,0.00035459214,0.00010155,0.0
NUVIEW ALPHA,2024-252B,2026-03-21T05:05:32.003808,1.00270986,0.00019697,0.067,36.7363,327.0951,168.1585,62455.0,999.0,294.0,0.0,-2.13e-06,0.0
AGILA,2024-252C,2026-03-21T05:02:38.770080,1.00271031,0.00013639,0.0294,141.9696,210.5663,54.0112,62456.0,999.0,427.0,0.0,-1.8e-06,0.0
NUVIEW BRAVO,2024-252D,2026-03-21T05:05:31.932096,1.00271322,4.669e-05,0.0618,172.5566,238.6705,120.7637,62457.0,999.0,291.0,0.0,-2.13e-06,0.0
SDX01,2024-253A,2026-03-21T04:37:30.506016,15.58811774,0.0005712,54.996,39.4768,39.1854,320.9595,62459.0,999.0,6876.0,0.00087052139,0.00068498,0.0
SDX02,2024-253B,2026-03-21T04:37:45.943104,15.58818624,0.00057994,54.9954,39.4742,39.7492,320.3969,62460.0,999.0,6875.0,0.00086086487,0.00067745,0.0
STARLINK-11518 [DTC],2024-254A,2026-03-20T22:09:43.634016,15.70884062,5.415e-05,42.9995,155.6611,323.776,36.3071,62462.0,999.0,7117.0,0.0013561133,0.00177657,0.0
STARLINK-11455 [DTC],2024-254B,2026-03-21T05:55:08.622048,15.70879959,0.00010682,42.9996,153.7883,245.0998,114.9759,62463.0,999.0,7121.0,0.0023141966,0.00308298,0.0
STARLINK-11178 [DTC],2024-254D,2026-03-20T21:54:25.871616,15.70965053,0.00016969,42.9992,155.5751,287.5305,72.5377,62465.0,999.0,7100.0,0.0018358144,0.00243416,0.0
